start=new Date('2021-11-10T00:00:00.000Z').valueOf();
sats=[{"OBJECT_NAME":"STARLINK-1857","TIME_SYSTEM":"UTC","MEAN_ELEMENT_THEORY":"SGP4","PERIAPSIS":"546.210","RCS_SIZE":"LARGE","GP_ID":"189360488","MEAN_MOTION_DDOT":"0.0000000000000","APOAPSIS":"548.265","ARG_OF_PERICENTER":"77.6139","DECAY_DATE":null,"MEAN_ANOMALY":"282.5016","MEAN_MOTION":"15.06392171","FILE":"3210180","REF_FRAME":"TEME","TLE_LINE2":"2 47144  53.0549 178.4123 0001484  77.6139 282.5016 15.06392171 53843","OBJECT_TYPE":"PAYLOAD","PERIOD":"95.593","SEMIMAJOR_AXIS":"6925.373","NORAD_CAT_ID":"47144","ECCENTRICITY":"0.00014840","SITE":"AFETR","MEAN_MOTION_DOT":"0.00002813","REV_AT_EPOCH":"5384","INCLINATION":"53.0549","COUNTRY_CODE":"US","OBJECT_ID":"2020-088Y","CLASSIFICATION_TYPE":"U","RA_OF_ASC_NODE":"178.4123","ELEMENT_SET_NO":"999","BSTAR":"0.00020772000000","EPHEMERIS_TYPE":"0","TLE_LINE1":"1 47144U 20088Y   21313.82080642  .00002813  00000-0  20772-3 0  9993","LAUNCH_DATE":"2020-11-25","CENTER_NAME":"EARTH","EPOCH":"2021-11-09T19:41:57.674688"},{"TLE_LINE1":"1 47145U 20088Z   21313.74706170  .00002690  00000-0  19946-3 0  9990","LAUNCH_DATE":"2020-11-25","CENTER_NAME":"EARTH","EPOCH":"2021-11-09T17:55:46.130880","BSTAR":"0.00019946000000","EPHEMERIS_TYPE":"0","ELEMENT_SET_NO":"999","COUNTRY_CODE":"US","OBJECT_ID":"2020-088Z","CLASSIFICATION_TYPE":"U","RA_OF_ASC_NODE":"178.7328","MEAN_MOTION_DOT":"0.00002690","REV_AT_EPOCH":"5383","INCLINATION":"53.0541","SITE":"AFETR","SEMIMAJOR_AXIS":"6925.340","NORAD_CAT_ID":"47145","ECCENTRICITY":"0.00038300","TLE_LINE2":"2 47145  53.0541 178.7328 0003830 156.8706 203.2456 15.06402665 53830","OBJECT_TYPE":"PAYLOAD","PERIOD":"95.592","MEAN_ANOMALY":"203.2456","MEAN_MOTION":"15.06402665","FILE":"3210180","REF_FRAME":"TEME","ARG_OF_PERICENTER":"156.8706","DECAY_DATE":null,"APOAPSIS":"549.858","MEAN_MOTION_DDOT":"0.0000000000000","GP_ID":"189360738","PERIAPSIS":"544.553","MEAN_ELEMENT_THEORY":"SGP4","RCS_SIZE":"LARGE","OBJECT_NAME":"STARLINK-1858","TIME_SYSTEM":"UTC"},{"APOAPSIS":"538.188","MEAN_MOTION_DDOT":"0.0000000000000","ARG_OF_PERICENTER":"151.8841","DECAY_DATE":null,"MEAN_MOTION":"15.10178604","MEAN_ANOMALY":"208.2348","FILE":"3210180","REF_FRAME":"TEME","TLE_LINE2":"2 47146  53.0546 208.8746 0003661 151.8841 208.2348 15.10178604 53408","OBJECT_TYPE":"PAYLOAD","PERIOD":"95.353","OBJECT_NAME":"STARLINK-1859","TIME_SYSTEM":"UTC","MEAN_ELEMENT_THEORY":"SGP4","PERIAPSIS":"533.126","RCS_SIZE":"LARGE","GP_ID":"189361990","COUNTRY_CODE":"US","OBJECT_ID":"2020-088AA","CLASSIFICATION_TYPE":"U","RA_OF_ASC_NODE":"208.8746","ELEMENT_SET_NO":"999","EPHEMERIS_TYPE":"0","BSTAR":"0.01324600000000","TLE_LINE1":"1 47146U 20088AA  21313.70372030  .00225504  00000-0  13246-1 0  9997","LAUNCH_DATE":"2020-11-25","CENTER_NAME":"EARTH","EPOCH":"2021-11-09T16:53:21.433920","SEMIMAJOR_AXIS":"6913.792","NORAD_CAT_ID":"47146","ECCENTRICITY":"0.00036610","SITE":"AFETR","MEAN_MOTION_DOT":"0.00225504","REV_AT_EPOCH":"5340","INCLINATION":"53.0546"},{"TIME_SYSTEM":"UTC","OBJECT_NAME":"STARLINK-1860","RCS_SIZE":"LARGE","PERIAPSIS":"545.978","MEAN_ELEMENT_THEORY":"SGP4","GP_ID":"189336989","APOAPSIS":"548.551","MEAN_MOTION_DDOT":"0.0000000000000","DECAY_DATE":null,"ARG_OF_PERICENTER":"311.0227","REF_FRAME":"TEME","FILE":"3210161","MEAN_MOTION":"15.06383456","MEAN_ANOMALY":"49.0601","PERIOD":"95.593","OBJECT_TYPE":"PAYLOAD","TLE_LINE2":"2 47147  53.0522 200.4033 0001858 311.0227  49.0601 15.06383456 53506","ECCENTRICITY":"0.00018580","NORAD_CAT_ID":"47147","SEMIMAJOR_AXIS":"6925.399","SITE":"AFETR","INCLINATION":"53.0522","REV_AT_EPOCH":"5350","MEAN_MOTION_DOT":"0.00000318","RA_OF_ASC_NODE":"200.4033","CLASSIFICATION_TYPE":"U","OBJECT_ID":"2020-088AB","COUNTRY_CODE":"US","ELEMENT_SET_NO":"999","BSTAR":"0.00004025400000","EPHEMERIS_TYPE":"0","EPOCH":"2021-11-09T09:07:39.088128","CENTER_NAME":"EARTH","LAUNCH_DATE":"2020-11-25","TLE_LINE1":"1 47147U 20088AB  21313.38031352  .00000318  00000-0  40254-4 0  9997"},{"RA_OF_ASC_NODE":"188.7155","CLASSIFICATION_TYPE":"U","OBJECT_ID":"2020-088AC","COUNTRY_CODE":"US","ELEMENT_SET_NO":"999","EPHEMERIS_TYPE":"0","BSTAR":"0.00000221630000","EPOCH":"2021-11-09T18:05:05.246880","CENTER_NAME":"EARTH","TLE_LINE1":"1 47148U 20088AC  21313.75353295 -.00000248  00000-0  22163-5 0  9995","LAUNCH_DATE":"2020-11-25","NORAD_CAT_ID":"47148","ECCENTRICITY":"0.00015580","SEMIMAJOR_AXIS":"6925.407","SITE":"AFETR","INCLINATION":"53.0555","REV_AT_EPOCH":"5369","MEAN_MOTION_DOT":"-0.00000248","APOAPSIS":"548.351","MEAN_MOTION_DDOT":"0.0000000000000","DECAY_DATE":null,"ARG_OF_PERICENTER":"70.5548","REF_FRAME":"TEME","FILE":"3210180","MEAN_MOTION":"15.06381000","MEAN_ANOMALY":"289.5609","PERIOD":"95.593","OBJECT_TYPE":"PAYLOAD","TLE_LINE2":"2 47148  53.0555 188.7155 0001558  70.5548 289.5609 15.06381000 53698","TIME_SYSTEM":"UTC","OBJECT_NAME":"STARLINK-1861","RCS_SIZE":"LARGE","MEAN_ELEMENT_THEORY":"SGP4","PERIAPSIS":"546.193","GP_ID":"189360989"},{"FILE":"3210161","REF_FRAME":"TEME","MEAN_MOTION":"15.06372794","MEAN_ANOMALY":"288.1356","OBJECT_TYPE":"PAYLOAD","PERIOD":"95.594","TLE_LINE2":"2 47149  53.0531 200.3821 0001698  71.9817 288.1356 15.06372794 54238","APOAPSIS":"548.473","MEAN_MOTION_DDOT":"0.0000000000000","DECAY_DATE":null,"ARG_OF_PERICENTER":"71.9817","GP_ID":"189337991","TIME_SYSTEM":"UTC","OBJECT_NAME":"STARLINK-1862","PERIAPSIS":"546.121","MEAN_ELEMENT_THEORY":"SGP4","RCS_SIZE":"LARGE","EPHEMERIS_TYPE":"0","BSTAR":"0.00038488000000","CENTER_NAME":"EARTH","EPOCH":"2021-11-09T09:13:01.057728","LAUNCH_DATE":"2020-11-25","TLE_LINE1":"1 47149U 20088AD  21313.38404002  .00005452  00000-0  38488-3 0  9994","CLASSIFICATION_TYPE":"U","RA_OF_ASC_NODE":"200.3821","COUNTRY_CODE":"US","OBJECT_ID":"2020-088AD","ELEMENT_SET_NO":"999","SITE":"AFETR","REV_AT_EPOCH":"5423","INCLINATION":"53.0531","MEAN_MOTION_DOT":"0.00005452","NORAD_CAT_ID":"47149","ECCENTRICITY":"0.00016980","SEMIMAJOR_AXIS":"6925.432"},{"REV_AT_EPOCH":"5371","INCLINATION":"53.0525","MEAN_MOTION_DOT":"0.00003229","SITE":"AFETR","ECCENTRICITY":"0.00013470","NORAD_CAT_ID":"47150","SEMIMAJOR_AXIS":"6925.291","EPOCH":"2021-11-09T20:12:27.288000","CENTER_NAME":"EARTH","LAUNCH_DATE":"2020-11-25","TLE_LINE1":"1 47150U 20088AE  21313.84198250  .00003229  00000-0  23545-3 0  9990","BSTAR":"0.00023545000000","EPHEMERIS_TYPE":"0","ELEMENT_SET_NO":"999","RA_OF_ASC_NODE":"188.3267","CLASSIFICATION_TYPE":"U","OBJECT_ID":"2020-088AE","COUNTRY_CODE":"US","GP_ID":"189361490","RCS_SIZE":"LARGE","PERIAPSIS":"546.223","MEAN_ELEMENT_THEORY":"SGP4","TIME_SYSTEM":"UTC","OBJECT_NAME":"STARLINK-1863","PERIOD":"95.591","OBJECT_TYPE":"PAYLOAD","TLE_LINE2":"2 47150  53.0525 188.3267 0001347  70.2497 289.8637 15.06418682 53718","REF_FRAME":"TEME","FILE":"3210180","MEAN_ANOMALY":"289.8637","MEAN_MOTION":"15.06418682","DECAY_DATE":null,"ARG_OF_PERICENTER":"70.2497","MEAN_MOTION_DDOT":"0.0000000000000","APOAPSIS":"548.089"},{"SITE":"AFETR","MEAN_MOTION_DOT":"-0.00000056","INCLINATION":"53.0534","REV_AT_EPOCH":"5353","SEMIMAJOR_AXIS":"6925.378","NORAD_CAT_ID":"47151","ECCENTRICITY":"0.00016040","BSTAR":"0.00001514300000","EPHEMERIS_TYPE":"0","TLE_LINE1":"1 47151U 20088AF  21313.64202384 -.00000056  00000-0  15143-4 0  9995","LAUNCH_DATE":"2020-11-25","CENTER_NAME":"EARTH","EPOCH":"2021-11-09T15:24:30.859776","COUNTRY_CODE":"US","OBJECT_ID":"2020-088AF","CLASSIFICATION_TYPE":"U","RA_OF_ASC_NODE":"199.2166","ELEMENT_SET_NO":"999","GP_ID":"189361741","OBJECT_NAME":"STARLINK-1864","TIME_SYSTEM":"UTC","MEAN_ELEMENT_THEORY":"SGP4","PERIAPSIS":"546.132","RCS_SIZE":"LARGE","MEAN_MOTION":"15.06390291","MEAN_ANOMALY":"288.9553","FILE":"3210180","REF_FRAME":"TEME","TLE_LINE2":"2 47151  53.0534 199.2166 0001604  71.1610 288.9553 15.06390291 53533","OBJECT_TYPE":"PAYLOAD","PERIOD":"95.593","APOAPSIS":"548.354","MEAN_MOTION_DDOT":"0.0000000000000","ARG_OF_PERICENTER":"71.1610","DECAY_DATE":null},{"LAUNCH_DATE":"2020-11-25","TLE_LINE1":"1 47152U 20088AG  21313.42825809  .00013641  00000-0  93247-3 0  9998","EPOCH":"2021-11-09T10:16:41.498976","CENTER_NAME":"EARTH","BSTAR":"0.00093247000000","EPHEMERIS_TYPE":"0","ELEMENT_SET_NO":"999","OBJECT_ID":"2020-088AG","COUNTRY_CODE":"US","RA_OF_ASC_NODE":"200.1871","CLASSIFICATION_TYPE":"U","MEAN_MOTION_DOT":"0.00013641","INCLINATION":"53.0524","REV_AT_EPOCH":"5350","SITE":"AFETR","SEMIMAJOR_AXIS":"6925.298","NORAD_CAT_ID":"47152","ECCENTRICITY":"0.00013150","TLE_LINE2":"2 47152  53.0524 200.1871 0001315  78.2270 281.8866 15.06416486 53508","PERIOD":"95.591","OBJECT_TYPE":"PAYLOAD","MEAN_MOTION":"15.06416486","MEAN_ANOMALY":"281.8866","REF_FRAME":"TEME","FILE":"3210161","ARG_OF_PERICENTER":"78.2270","DECAY_DATE":null,"APOAPSIS":"548.074","MEAN_MOTION_DDOT":"0.0000000000000","GP_ID":"189337240","RCS_SIZE":"LARGE","MEAN_ELEMENT_THEORY":"SGP4","PERIAPSIS":"546.252","OBJECT_NAME":"STARLINK-1866","TIME_SYSTEM":"UTC"},{"PERIOD":"95.591","OBJECT_TYPE":"PAYLOAD","TLE_LINE2":"2 47153  53.0523 203.5113 0001634  62.9880 297.1276 15.06419884 53493","REF_FRAME":"TEME","FILE":"3210180","MEAN_MOTION":"15.06419884","MEAN_ANOMALY":"297.1276","DECAY_DATE":null,"ARG_OF_PERICENTER":"62.9880","MEAN_MOTION_DDOT":"0.0000000000000","APOAPSIS":"548.284","GP_ID":"189360739","RCS_SIZE":"LARGE","PERIAPSIS":"546.021","MEAN_ELEMENT_THEORY":"SGP4","TIME_SYSTEM":"UTC","OBJECT_NAME":"STARLINK-1867","EPOCH":"2021-11-09T19:13:22.604448","CENTER_NAME":"EARTH","LAUNCH_DATE":"2020-11-25","TLE_LINE1":"1 47153U 20088AH  21313.80095607  .00004396  00000-0  31365-3 0  9996","EPHEMERIS_TYPE":"0","BSTAR":"0.00031365000000","ELEMENT_SET_NO":"999","RA_OF_ASC_NODE":"203.5113","CLASSIFICATION_TYPE":"U","OBJECT_ID":"2020-088AH","COUNTRY_CODE":"US","INCLINATION":"53.0523","REV_AT_EPOCH":"5349","MEAN_MOTION_DOT":"0.00004396","SITE":"AFETR","NORAD_CAT_ID":"47153","ECCENTRICITY":"0.00016340","SEMIMAJOR_AXIS":"6925.288"}];
